<?xml version="1.0" encoding="UTF-8"?>
<ndm xmlns:xsi="http://www.w3.org/2001/XMLSchema-instance" xsi:noNamespaceSchemaLocation="https://sanaregistry.org/r/ndmxml_unqualified/ndmxml-2.0.0-master-2.0.xsd">
<omm id="CCSDS_OMM_VERS" version="2.0">
<header><CREATION_DATE/><ORIGINATOR/></header><body><segment><metadata><OBJECT_NAME>ORBCOMM FM33 [-]</OBJECT_NAME><OBJECT_ID>1999-065D</OBJECT_ID><CENTER_NAME>EARTH</CENTER_NAME><REF_FRAME>TEME</REF_FRAME><TIME_SYSTEM>UTC</TIME_SYSTEM><MEAN_ELEMENT_THEORY>SGP4</MEAN_ELEMENT_THEORY></metadata><data><meanElements><EPOCH>2024-03-30T23:32:25.630944</EPOCH><MEAN_MOTION>14.37480104</MEAN_MOTION><ECCENTRICITY>.000843</ECCENTRICITY><INCLINATION>45.0287</INCLINATION><RA_OF_ASC_NODE>301.9121</RA_OF_ASC_NODE><ARG_OF_PERICENTER>353.8034</ARG_OF_PERICENTER><MEAN_ANOMALY>167.9247</MEAN_ANOMALY></meanElements><tleParameters><EPHEMERIS_TYPE>0</EPHEMERIS_TYPE><CLASSIFICATION_TYPE>U</CLASSIFICATION_TYPE><NORAD_CAT_ID>25983</NORAD_CAT_ID><ELEMENT_SET_NO>999</ELEMENT_SET_NO><REV_AT_EPOCH>27223</REV_AT_EPOCH><BSTAR>.82772E-3</BSTAR><MEAN_MOTION_DOT>.236E-4</MEAN_MOTION_DOT><MEAN_MOTION_DDOT>0</MEAN_MOTION_DDOT></tleParameters></data></segment></body></omm>
<omm id="CCSDS_OMM_VERS" version="2.0">
<header><CREATION_DATE/><ORIGINATOR/></header><body><segment><metadata><OBJECT_NAME>ORBCOMM FM36 [-]</OBJECT_NAME><OBJECT_ID>1999-065E</OBJECT_ID><CENTER_NAME>EARTH</CENTER_NAME><REF_FRAME>TEME</REF_FRAME><TIME_SYSTEM>UTC</TIME_SYSTEM><MEAN_ELEMENT_THEORY>SGP4</MEAN_ELEMENT_THEORY></metadata><data><meanElements><EPOCH>2024-03-30T20:37:52.835520</EPOCH><MEAN_MOTION>14.35354786</MEAN_MOTION><ECCENTRICITY>.0003583</ECCENTRICITY><INCLINATION>45.0409</INCLINATION><RA_OF_ASC_NODE>27.2863</RA_OF_ASC_NODE><ARG_OF_PERICENTER>253.5970</ARG_OF_PERICENTER><MEAN_ANOMALY>106.4484</MEAN_ANOMALY></meanElements><tleParameters><EPHEMERIS_TYPE>0</EPHEMERIS_TYPE><CLASSIFICATION_TYPE>U</CLASSIFICATION_TYPE><NORAD_CAT_ID>25984</NORAD_CAT_ID><ELEMENT_SET_NO>999</ELEMENT_SET_NO><REV_AT_EPOCH>27066</REV_AT_EPOCH><BSTAR>.10892E-2</BSTAR><MEAN_MOTION_DOT>.3012E-4</MEAN_MOTION_DOT><MEAN_MOTION_DDOT>0</MEAN_MOTION_DDOT></tleParameters></data></segment></body></omm>
<omm id="CCSDS_OMM_VERS" version="2.0">
<header><CREATION_DATE/><ORIGINATOR/></header><body><segment><metadata><OBJECT_NAME>ORBCOMM FM35 [+]</OBJECT_NAME><OBJECT_ID>1999-065F</OBJECT_ID><CENTER_NAME>EARTH</CENTER_NAME><REF_FRAME>TEME</REF_FRAME><TIME_SYSTEM>UTC</TIME_SYSTEM><MEAN_ELEMENT_THEORY>SGP4</MEAN_ELEMENT_THEORY></metadata><data><meanElements><EPOCH>2024-03-30T19:41:38.660640</EPOCH><MEAN_MOTION>14.34972211</MEAN_MOTION><ECCENTRICITY>.0004456</ECCENTRICITY><INCLINATION>45.0410</INCLINATION><RA_OF_ASC_NODE>29.9937</RA_OF_ASC_NODE><ARG_OF_PERICENTER>333.1175</ARG_OF_PERICENTER><MEAN_ANOMALY>26.9441</MEAN_ANOMALY></meanElements><tleParameters><EPHEMERIS_TYPE>0</EPHEMERIS_TYPE><CLASSIFICATION_TYPE>U</CLASSIFICATION_TYPE><NORAD_CAT_ID>25985</NORAD_CAT_ID><ELEMENT_SET_NO>999</ELEMENT_SET_NO><REV_AT_EPOCH>27105</REV_AT_EPOCH><BSTAR>.66795E-3</BSTAR><MEAN_MOTION_DOT>.1777E-4</MEAN_MOTION_DOT><MEAN_MOTION_DDOT>0</MEAN_MOTION_DDOT></tleParameters></data></segment></body></omm>
<omm id="CCSDS_OMM_VERS" version="2.0">
<header><CREATION_DATE/><ORIGINATOR/></header><body><segment><metadata><OBJECT_NAME>ORBCOMM FM34 [-]</OBJECT_NAME><OBJECT_ID>1999-065G</OBJECT_ID><CENTER_NAME>EARTH</CENTER_NAME><REF_FRAME>TEME</REF_FRAME><TIME_SYSTEM>UTC</TIME_SYSTEM><MEAN_ELEMENT_THEORY>SGP4</MEAN_ELEMENT_THEORY></metadata><data><meanElements><EPOCH>2024-03-30T12:16:34.456224</EPOCH><MEAN_MOTION>14.34931922</MEAN_MOTION><ECCENTRICITY>.0004782</ECCENTRICITY><INCLINATION>45.0403</INCLINATION><RA_OF_ASC_NODE>31.9766</RA_OF_ASC_NODE><ARG_OF_PERICENTER>290.8773</ARG_OF_PERICENTER><MEAN_ANOMALY>69.1562</MEAN_ANOMALY></meanElements><tleParameters><EPHEMERIS_TYPE>0</EPHEMERIS_TYPE><CLASSIFICATION_TYPE>U</CLASSIFICATION_TYPE><NORAD_CAT_ID>25986</NORAD_CAT_ID><ELEMENT_SET_NO>999</ELEMENT_SET_NO><REV_AT_EPOCH>27112</REV_AT_EPOCH><BSTAR>.75711E-3</BSTAR><MEAN_MOTION_DOT>.2032E-4</MEAN_MOTION_DOT><MEAN_MOTION_DDOT>0</MEAN_MOTION_DDOT></tleParameters></data></segment></body></omm>
<omm id="CCSDS_OMM_VERS" version="2.0">
<header><CREATION_DATE/><ORIGINATOR/></header><body><segment><metadata><OBJECT_NAME>ORBCOMM FM38 [-]</OBJECT_NAME><OBJECT_ID>2008-031A</OBJECT_ID><CENTER_NAME>EARTH</CENTER_NAME><REF_FRAME>TEME</REF_FRAME><TIME_SYSTEM>UTC</TIME_SYSTEM><MEAN_ELEMENT_THEORY>SGP4</MEAN_ELEMENT_THEORY></metadata><data><meanElements><EPOCH>2024-03-30T20:25:05.511072</EPOCH><MEAN_MOTION>14.77221888</MEAN_MOTION><ECCENTRICITY>.0005874</ECCENTRICITY><INCLINATION>48.4394</INCLINATION><RA_OF_ASC_NODE>261.3310</RA_OF_ASC_NODE><ARG_OF_PERICENTER>294.6875</ARG_OF_PERICENTER><MEAN_ANOMALY>65.3427</MEAN_ANOMALY></meanElements><tleParameters><EPHEMERIS_TYPE>0</EPHEMERIS_TYPE><CLASSIFICATION_TYPE>U</CLASSIFICATION_TYPE><NORAD_CAT_ID>33060</NORAD_CAT_ID><ELEMENT_SET_NO>999</ELEMENT_SET_NO><REV_AT_EPOCH>84911</REV_AT_EPOCH><BSTAR>.64945E-3</BSTAR><MEAN_MOTION_DOT>.4446E-4</MEAN_MOTION_DOT><MEAN_MOTION_DDOT>0</MEAN_MOTION_DDOT></tleParameters></data></segment></body></omm>
<omm id="CCSDS_OMM_VERS" version="2.0">
<header><CREATION_DATE/><ORIGINATOR/></header><body><segment><metadata><OBJECT_NAME>ORBCOMM FM41 [-]</OBJECT_NAME><OBJECT_ID>2008-031B</OBJECT_ID><CENTER_NAME>EARTH</CENTER_NAME><REF_FRAME>TEME</REF_FRAME><TIME_SYSTEM>UTC</TIME_SYSTEM><MEAN_ELEMENT_THEORY>SGP4</MEAN_ELEMENT_THEORY></metadata><data><meanElements><EPOCH>2024-03-30T18:08:58.218432</EPOCH><MEAN_MOTION>14.76952644</MEAN_MOTION><ECCENTRICITY>.0005089</ECCENTRICITY><INCLINATION>48.4433</INCLINATION><RA_OF_ASC_NODE>268.3039</RA_OF_ASC_NODE><ARG_OF_PERICENTER>280.1112</ARG_OF_PERICENTER><MEAN_ANOMALY>93.5165</MEAN_ANOMALY></meanElements><tleParameters><EPHEMERIS_TYPE>0</EPHEMERIS_TYPE><CLASSIFICATION_TYPE>U</CLASSIFICATION_TYPE><NORAD_CAT_ID>33061</NORAD_CAT_ID><ELEMENT_SET_NO>999</ELEMENT_SET_NO><REV_AT_EPOCH>84860</REV_AT_EPOCH><BSTAR>.47283E-3</BSTAR><MEAN_MOTION_DOT>.3159E-4</MEAN_MOTION_DOT><MEAN_MOTION_DDOT>0</MEAN_MOTION_DDOT></tleParameters></data></segment></body></omm>
<omm id="CCSDS_OMM_VERS" version="2.0">
<header><CREATION_DATE/><ORIGINATOR/></header><body><segment><metadata><OBJECT_NAME>ORBCOMM FM29 [-]</OBJECT_NAME><OBJECT_ID>2008-031C</OBJECT_ID><CENTER_NAME>EARTH</CENTER_NAME><REF_FRAME>TEME</REF_FRAME><TIME_SYSTEM>UTC</TIME_SYSTEM><MEAN_ELEMENT_THEORY>SGP4</MEAN_ELEMENT_THEORY></metadata><data><meanElements><EPOCH>2024-03-30T15:01:41.174400</EPOCH><MEAN_MOTION>14.76870996</MEAN_MOTION><ECCENTRICITY>.0006909</ECCENTRICITY><INCLINATION>48.4387</INCLINATION><RA_OF_ASC_NODE>276.9511</RA_OF_ASC_NODE><ARG_OF_PERICENTER>279.4999</ARG_OF_PERICENTER><MEAN_ANOMALY>194.6061</MEAN_ANOMALY></meanElements><tleParameters><EPHEMERIS_TYPE>0</EPHEMERIS_TYPE><CLASSIFICATION_TYPE>U</CLASSIFICATION_TYPE><NORAD_CAT_ID>33062</NORAD_CAT_ID><ELEMENT_SET_NO>999</ELEMENT_SET_NO><REV_AT_EPOCH>84849</REV_AT_EPOCH><BSTAR>.46845E-3</BSTAR><MEAN_MOTION_DOT>.3121E-4</MEAN_MOTION_DOT><MEAN_MOTION_DDOT>0</MEAN_MOTION_DDOT></tleParameters></data></segment></body></omm>
<omm id="CCSDS_OMM_VERS" version="2.0">
<header><CREATION_DATE/><ORIGINATOR/></header><body><segment><metadata><OBJECT_NAME>ORBCOMM FM39 [-]</OBJECT_NAME><OBJECT_ID>2008-031D</OBJECT_ID><CENTER_NAME>EARTH</CENTER_NAME><REF_FRAME>TEME</REF_FRAME><TIME_SYSTEM>UTC</TIME_SYSTEM><MEAN_ELEMENT_THEORY>SGP4</MEAN_ELEMENT_THEORY></metadata><data><meanElements><EPOCH>2024-03-30T21:09:32.322240</EPOCH><MEAN_MOTION>14.75920379</MEAN_MOTION><ECCENTRICITY>.0007843</ECCENTRICITY><INCLINATION>48.4404</INCLINATION><RA_OF_ASC_NODE>295.9589</RA_OF_ASC_NODE><ARG_OF_PERICENTER>258.2452</ARG_OF_PERICENTER><MEAN_ANOMALY>101.7582</MEAN_ANOMALY></meanElements><tleParameters><EPHEMERIS_TYPE>0</EPHEMERIS_TYPE><CLASSIFICATION_TYPE>U</CLASSIFICATION_TYPE><NORAD_CAT_ID>33063</NORAD_CAT_ID><ELEMENT_SET_NO>999</ELEMENT_SET_NO><REV_AT_EPOCH>84823</REV_AT_EPOCH><BSTAR>.52964E-3</BSTAR><MEAN_MOTION_DOT>.3475E-4</MEAN_MOTION_DOT><MEAN_MOTION_DDOT>0</MEAN_MOTION_DDOT></tleParameters></data></segment></body></omm>

</ndm>
