ORBCOMM FM33 [-]        
1 25983U 99065D   24090.98085221  .00002360  00000+0  82772-3 0  9995
2 25983  45.0287 301.9121 0008430 353.8034 167.9247 14.37480104272237
ORBCOMM FM36 [-]        
1 25984U 99065E   24090.85963930  .00003012  00000+0  10892-2 0  9992
2 25984  45.0409  27.2863 0003583 253.5970 106.4484 14.35354786270664
ORBCOMM FM35 [+]        
1 25985U 99065F   24090.82058635  .00001777  00000+0  66795-3 0  9997
2 25985  45.0410  29.9937 0004456 333.1175  26.9441 14.34972211271051
ORBCOMM FM34 [-]        
1 25986U 99065G   24090.51150991  .00002032  00000+0  75711-3 0  9995
2 25986  45.0403  31.9766 0004782 290.8773  69.1562 14.34931922271127
ORBCOMM FM38 [-]        
1 33060U 08031A   24090.85075823  .00004446  00000+0  64945-3 0  9995
2 33060  48.4394 261.3310 0005874 294.6875  65.3427 14.77221888849115
ORBCOMM FM41 [-]        
1 33061U 08031B   24090.75622938  .00003159  00000+0  47283-3 0  9996
2 33061  48.4433 268.3039 0005089 280.1112  93.5165 14.76952644848602
ORBCOMM FM29 [-]        
1 33062U 08031C   24090.62617100  .00003121  00000+0  46845-3 0  9990
2 33062  48.4387 276.9511 0006909 279.4999 194.6061 14.76870996848491
ORBCOMM FM39 [-]        
1 33063U 08031D   24090.88162410  .00003475  00000+0  52964-3 0  9999
2 33063  48.4404 295.9589 0007843 258.2452 101.7582 14.75920379848234
